[{"OBJECT_NAME":"STARLINK-30529","OBJECT_ID":"2023-156V","EPOCH":"2026-03-09T14:14:05.758080","MEAN_MOTION":15.30190563,"ECCENTRICITY":0.000107,"INCLINATION":53.1595,"RA_OF_ASC_NODE":168.9287,"ARG_OF_PERICENTER":83.7838,"MEAN_ANOMALY":276.3285,"EPHEMERIS_TYPE":0,"CLASSIFICATION_TYPE":"U","NORAD_CAT_ID":58047,"ELEMENT_SET_NO":999,"REV_AT_EPOCH":13496,"BSTAR":-3.5399e-5,"MEAN_MOTION_DOT":-1.407e-5,"MEAN_MOTION_DDOT":0},{"OBJECT_NAME":"YAM-7","OBJECT_ID":"2024-149AN","EPOCH":"2026-03-09T17:13:55.117920","MEAN_MOTION":15.30304554,"ECCENTRICITY":0.00019733,"INCLINATION":97.3828,"RA_OF_ASC_NODE":149.4631,"ARG_OF_PERICENTER":296.5121,"MEAN_ANOMALY":63.5918,"EPHEMERIS_TYPE":0,"CLASSIFICATION_TYPE":"U","NORAD_CAT_ID":60504,"ELEMENT_SET_NO":999,"REV_AT_EPOCH":8683,"BSTAR":0.00030984439,"MEAN_MOTION_DOT":9.009e-5,"MEAN_MOTION_DDOT":0}]
